IRIDIUM 126             
1 42809U 17039G   23240.78401532 -.00000220  00000+0 -85669-4 0  9997
2 42809  86.3928  61.3313 0002121  95.9597 264.1840 14.34215741323261
IRIDIUM 124             
1 42810U 17039H   23240.59049595  .00000478  00000+0  13615-3 0  9999
2 42810  86.4547 358.1699 0002295  89.2116 270.9348 14.43281898327471
IRIDIUM 128             
1 42811U 17039J   23240.84451937  .00000303  00000+0  10117-3 0  9996
2 42811  86.3920  92.8600 0002265  90.1659 269.9796 14.34220095323305
IRIDIUM 121             
1 42812U 17039K   23240.87280578  .00000118  00000+0  35113-4 0  9999
2 42812  86.3928  61.3152 0002151  92.0977 268.0465 14.34218128323155
IRIDIUM 133             
1 42955U 17061A   23240.87624368  .00000292  00000+0  97279-4 0  9995
2 42955  86.3923  92.9397 0002221  93.1651 266.9799 14.34216319308103
IRIDIUM 100             
1 42956U 17061B   23240.86989543  .00000282  00000+0  93760-4 0  9994
2 42956  86.3920  92.8853 0002229  90.8605 269.2846 14.34217228308107
IRIDIUM 122             
1 42957U 17061C   23240.83819038  .00000280  00000+0  92765-4 0  9995
2 42957  86.3921  92.8958 0002346  89.7517 270.3947 14.34220628308107
IRIDIUM 129             
1 42958U 17061D   23240.86355210  .00000282  00000+0  93509-4 0  9995
2 42958  86.3922  92.9418 0002246  90.6686 269.4768 14.34218005308126
