<?xml version="1.0" encoding="UTF-8"?>
<ndm xmlns:xsi="http://www.w3.org/2001/XMLSchema-instance" xsi:noNamespaceSchemaLocation="https://sanaregistry.org/r/ndmxml_unqualified/ndmxml-2.0.0-master-2.0.xsd">
<omm id="CCSDS_OMM_VERS" version="2.0">
<header><CREATION_DATE/><ORIGINATOR/></header><body><segment><metadata><OBJECT_NAME>IRIDIUM 126</OBJECT_NAME><OBJECT_ID>2017-039G</OBJECT_ID><CENTER_NAME>EARTH</CENTER_NAME><REF_FRAME>TEME</REF_FRAME><TIME_SYSTEM>UTC</TIME_SYSTEM><MEAN_ELEMENT_THEORY>SGP4</MEAN_ELEMENT_THEORY></metadata><data><meanElements><EPOCH>2023-08-28T18:48:58.923648</EPOCH><MEAN_MOTION>14.34215741</MEAN_MOTION><ECCENTRICITY>.0002121</ECCENTRICITY><INCLINATION>86.3928</INCLINATION><RA_OF_ASC_NODE>61.3313</RA_OF_ASC_NODE><ARG_OF_PERICENTER>95.9597</ARG_OF_PERICENTER><MEAN_ANOMALY>264.1840</MEAN_ANOMALY></meanElements><tleParameters><EPHEMERIS_TYPE>0</EPHEMERIS_TYPE><CLASSIFICATION_TYPE>U</CLASSIFICATION_TYPE><NORAD_CAT_ID>42809</NORAD_CAT_ID><ELEMENT_SET_NO>999</ELEMENT_SET_NO><REV_AT_EPOCH>32326</REV_AT_EPOCH><BSTAR>-.85669E-4</BSTAR><MEAN_MOTION_DOT>-.22E-5</MEAN_MOTION_DOT><MEAN_MOTION_DDOT>0</MEAN_MOTION_DDOT></tleParameters></data></segment></body></omm>
<omm id="CCSDS_OMM_VERS" version="2.0">
<header><CREATION_DATE/><ORIGINATOR/></header><body><segment><metadata><OBJECT_NAME>IRIDIUM 124</OBJECT_NAME><OBJECT_ID>2017-039H</OBJECT_ID><CENTER_NAME>EARTH</CENTER_NAME><REF_FRAME>TEME</REF_FRAME><TIME_SYSTEM>UTC</TIME_SYSTEM><MEAN_ELEMENT_THEORY>SGP4</MEAN_ELEMENT_THEORY></metadata><data><meanElements><EPOCH>2023-08-28T14:10:18.850080</EPOCH><MEAN_MOTION>14.43281898</MEAN_MOTION><ECCENTRICITY>.0002295</ECCENTRICITY><INCLINATION>86.4547</INCLINATION><RA_OF_ASC_NODE>358.1699</RA_OF_ASC_NODE><ARG_OF_PERICENTER>89.2116</ARG_OF_PERICENTER><MEAN_ANOMALY>270.9348</MEAN_ANOMALY></meanElements><tleParameters><EPHEMERIS_TYPE>0</EPHEMERIS_TYPE><CLASSIFICATION_TYPE>U</CLASSIFICATION_TYPE><NORAD_CAT_ID>42810</NORAD_CAT_ID><ELEMENT_SET_NO>999</ELEMENT_SET_NO><REV_AT_EPOCH>32747</REV_AT_EPOCH><BSTAR>.13615E-3</BSTAR><MEAN_MOTION_DOT>.478E-5</MEAN_MOTION_DOT><MEAN_MOTION_DDOT>0</MEAN_MOTION_DDOT></tleParameters></data></segment></body></omm>
<omm id="CCSDS_OMM_VERS" version="2.0">
<header><CREATION_DATE/><ORIGINATOR/></header><body><segment><metadata><OBJECT_NAME>IRIDIUM 128</OBJECT_NAME><OBJECT_ID>2017-039J</OBJECT_ID><CENTER_NAME>EARTH</CENTER_NAME><REF_FRAME>TEME</REF_FRAME><TIME_SYSTEM>UTC</TIME_SYSTEM><MEAN_ELEMENT_THEORY>SGP4</MEAN_ELEMENT_THEORY></metadata><data><meanElements><EPOCH>2023-08-28T20:16:06.473568</EPOCH><MEAN_MOTION>14.34220095</MEAN_MOTION><ECCENTRICITY>.0002265</ECCENTRICITY><INCLINATION>86.3920</INCLINATION><RA_OF_ASC_NODE>92.8600</RA_OF_ASC_NODE><ARG_OF_PERICENTER>90.1659</ARG_OF_PERICENTER><MEAN_ANOMALY>269.9796</MEAN_ANOMALY></meanElements><tleParameters><EPHEMERIS_TYPE>0</EPHEMERIS_TYPE><CLASSIFICATION_TYPE>U</CLASSIFICATION_TYPE><NORAD_CAT_ID>42811</NORAD_CAT_ID><ELEMENT_SET_NO>999</ELEMENT_SET_NO><REV_AT_EPOCH>32330</REV_AT_EPOCH><BSTAR>.10117E-3</BSTAR><MEAN_MOTION_DOT>.303E-5</MEAN_MOTION_DOT><MEAN_MOTION_DDOT>0</MEAN_MOTION_DDOT></tleParameters></data></segment></body></omm>
<omm id="CCSDS_OMM_VERS" version="2.0">
<header><CREATION_DATE/><ORIGINATOR/></header><body><segment><metadata><OBJECT_NAME>IRIDIUM 121</OBJECT_NAME><OBJECT_ID>2017-039K</OBJECT_ID><CENTER_NAME>EARTH</CENTER_NAME><REF_FRAME>TEME</REF_FRAME><TIME_SYSTEM>UTC</TIME_SYSTEM><MEAN_ELEMENT_THEORY>SGP4</MEAN_ELEMENT_THEORY></metadata><data><meanElements><EPOCH>2023-08-28T20:56:50.419392</EPOCH><MEAN_MOTION>14.34218128</MEAN_MOTION><ECCENTRICITY>.0002151</ECCENTRICITY><INCLINATION>86.3928</INCLINATION><RA_OF_ASC_NODE>61.3152</RA_OF_ASC_NODE><ARG_OF_PERICENTER>92.0977</ARG_OF_PERICENTER><MEAN_ANOMALY>268.0465</MEAN_ANOMALY></meanElements><tleParameters><EPHEMERIS_TYPE>0</EPHEMERIS_TYPE><CLASSIFICATION_TYPE>U</CLASSIFICATION_TYPE><NORAD_CAT_ID>42812</NORAD_CAT_ID><ELEMENT_SET_NO>999</ELEMENT_SET_NO><REV_AT_EPOCH>32315</REV_AT_EPOCH><BSTAR>.35113E-4</BSTAR><MEAN_MOTION_DOT>.118E-5</MEAN_MOTION_DOT><MEAN_MOTION_DDOT>0</MEAN_MOTION_DDOT></tleParameters></data></segment></body></omm>
<omm id="CCSDS_OMM_VERS" version="2.0">
<header><CREATION_DATE/><ORIGINATOR/></header><body><segment><metadata><OBJECT_NAME>IRIDIUM 133</OBJECT_NAME><OBJECT_ID>2017-061A</OBJECT_ID><CENTER_NAME>EARTH</CENTER_NAME><REF_FRAME>TEME</REF_FRAME><TIME_SYSTEM>UTC</TIME_SYSTEM><MEAN_ELEMENT_THEORY>SGP4</MEAN_ELEMENT_THEORY></metadata><data><meanElements><EPOCH>2023-08-28T21:01:47.453952</EPOCH><MEAN_MOTION>14.34216319</MEAN_MOTION><ECCENTRICITY>.0002221</ECCENTRICITY><INCLINATION>86.3923</INCLINATION><RA_OF_ASC_NODE>92.9397</RA_OF_ASC_NODE><ARG_OF_PERICENTER>93.1651</ARG_OF_PERICENTER><MEAN_ANOMALY>266.9799</MEAN_ANOMALY></meanElements><tleParameters><EPHEMERIS_TYPE>0</EPHEMERIS_TYPE><CLASSIFICATION_TYPE>U</CLASSIFICATION_TYPE><NORAD_CAT_ID>42955</NORAD_CAT_ID><ELEMENT_SET_NO>999</ELEMENT_SET_NO><REV_AT_EPOCH>30810</REV_AT_EPOCH><BSTAR>.97279E-4</BSTAR><MEAN_MOTION_DOT>.292E-5</MEAN_MOTION_DOT><MEAN_MOTION_DDOT>0</MEAN_MOTION_DDOT></tleParameters></data></segment></body></omm>
<omm id="CCSDS_OMM_VERS" version="2.0">
<header><CREATION_DATE/><ORIGINATOR/></header><body><segment><metadata><OBJECT_NAME>IRIDIUM 100</OBJECT_NAME><OBJECT_ID>2017-061B</OBJECT_ID><CENTER_NAME>EARTH</CENTER_NAME><REF_FRAME>TEME</REF_FRAME><TIME_SYSTEM>UTC</TIME_SYSTEM><MEAN_ELEMENT_THEORY>SGP4</MEAN_ELEMENT_THEORY></metadata><data><meanElements><EPOCH>2023-08-28T20:52:38.965152</EPOCH><MEAN_MOTION>14.34217228</MEAN_MOTION><ECCENTRICITY>.0002229</ECCENTRICITY><INCLINATION>86.3920</INCLINATION><RA_OF_ASC_NODE>92.8853</RA_OF_ASC_NODE><ARG_OF_PERICENTER>90.8605</ARG_OF_PERICENTER><MEAN_ANOMALY>269.2846</MEAN_ANOMALY></meanElements><tleParameters><EPHEMERIS_TYPE>0</EPHEMERIS_TYPE><CLASSIFICATION_TYPE>U</CLASSIFICATION_TYPE><NORAD_CAT_ID>42956</NORAD_CAT_ID><ELEMENT_SET_NO>999</ELEMENT_SET_NO><REV_AT_EPOCH>30810</REV_AT_EPOCH><BSTAR>.9376E-4</BSTAR><MEAN_MOTION_DOT>.282E-5</MEAN_MOTION_DOT><MEAN_MOTION_DDOT>0</MEAN_MOTION_DDOT></tleParameters></data></segment></body></omm>
<omm id="CCSDS_OMM_VERS" version="2.0">
<header><CREATION_DATE/><ORIGINATOR/></header><body><segment><metadata><OBJECT_NAME>IRIDIUM 122</OBJECT_NAME><OBJECT_ID>2017-061C</OBJECT_ID><CENTER_NAME>EARTH</CENTER_NAME><REF_FRAME>TEME</REF_FRAME><TIME_SYSTEM>UTC</TIME_SYSTEM><MEAN_ELEMENT_THEORY>SGP4</MEAN_ELEMENT_THEORY></metadata><data><meanElements><EPOCH>2023-08-28T20:06:59.648832</EPOCH><MEAN_MOTION>14.34220628</MEAN_MOTION><ECCENTRICITY>.0002346</ECCENTRICITY><INCLINATION>86.3921</INCLINATION><RA_OF_ASC_NODE>92.8958</RA_OF_ASC_NODE><ARG_OF_PERICENTER>89.7517</ARG_OF_PERICENTER><MEAN_ANOMALY>270.3947</MEAN_ANOMALY></meanElements><tleParameters><EPHEMERIS_TYPE>0</EPHEMERIS_TYPE><CLASSIFICATION_TYPE>U</CLASSIFICATION_TYPE><NORAD_CAT_ID>42957</NORAD_CAT_ID><ELEMENT_SET_NO>999</ELEMENT_SET_NO><REV_AT_EPOCH>30810</REV_AT_EPOCH><BSTAR>.92765E-4</BSTAR><MEAN_MOTION_DOT>.28E-5</MEAN_MOTION_DOT><MEAN_MOTION_DDOT>0</MEAN_MOTION_DDOT></tleParameters></data></segment></body></omm>
<omm id="CCSDS_OMM_VERS" version="2.0">
<header><CREATION_DATE/><ORIGINATOR/></header><body><segment><metadata><OBJECT_NAME>IRIDIUM 129</OBJECT_NAME><OBJECT_ID>2017-061D</OBJECT_ID><CENTER_NAME>EARTH</CENTER_NAME><REF_FRAME>TEME</REF_FRAME><TIME_SYSTEM>UTC</TIME_SYSTEM><MEAN_ELEMENT_THEORY>SGP4</MEAN_ELEMENT_THEORY></metadata><data><meanElements><EPOCH>2023-08-28T20:43:30.901440</EPOCH><MEAN_MOTION>14.34218005</MEAN_MOTION><ECCENTRICITY>.0002246</ECCENTRICITY><INCLINATION>86.3922</INCLINATION><RA_OF_ASC_NODE>92.9418</RA_OF_ASC_NODE><ARG_OF_PERICENTER>90.6686</ARG_OF_PERICENTER><MEAN_ANOMALY>269.4768</MEAN_ANOMALY></meanElements><tleParameters><EPHEMERIS_TYPE>0</EPHEMERIS_TYPE><CLASSIFICATION_TYPE>U</CLASSIFICATION_TYPE><NORAD_CAT_ID>42958</NORAD_CAT_ID><ELEMENT_SET_NO>999</ELEMENT_SET_NO><REV_AT_EPOCH>30812</REV_AT_EPOCH><BSTAR>.93509E-4</BSTAR><MEAN_MOTION_DOT>.282E-5</MEAN_MOTION_DOT><MEAN_MOTION_DDOT>0</MEAN_MOTION_DDOT></tleParameters></data></segment></body></omm>

</ndm>
